CUTE-1 (CO-55)          
1 27844U 03031E   23354.94756518  .00000595  00000+0  28373-3 0  9998
2 27844  98.6786 359.5042 0008910 309.0252  51.0132 14.23004667 62292
CUBESAT XI-IV (CO-57)   
1 27848U 03031J   23353.96969329  .00000427  00000+0  21095-3 0  9997
2 27848  98.6818 358.8785 0009066 328.8023  31.2616 14.22482293 61915
CUBESAT XI-V            
1 28895U 05043F   23354.32558618  .00002899  00000+0  53014-3 0  9992
2 28895  98.1762 125.3597 0015741 201.6816 158.3723 14.66575377968082
CUTE-1.7+APD II (CO-65) 
1 32785U 08021C   23354.89481711  .00005674  00000+0  53350-3 0  9992
2 32785  97.7316 317.3507 0010866 195.9381 164.1499 14.94247853848756
AAUSAT-II               
1 32788U 08021F   23354.48898543  .00018538  00000+0  11656-2 0  9990
2 32788  97.5800 330.6140 0009173  76.8745 283.3507 15.09243445851158
SEEDS II (CO-66)        
1 32791U 08021J   23354.82499803  .00008767  00000+0  71242-3 0  9999
2 32791  97.6819 322.7701 0010116 137.1138 223.0876 14.99789440849609
SWISSCUBE               
1 35932U 09051B   23354.65100160  .00001711  00000+0  38011-3 0  9998
2 35932  98.4942 229.2139 0007787 144.0378 216.1345 14.58335440756382
BEESAT-1                
1 35933U 09051C   23354.62908959  .00001479  00000+0  33125-3 0  9990
2 35933  98.4870 230.3194 0005877 153.5352 206.6147 14.58165674756454
ITUPSAT1                
1 35935U 09051E   23354.58722130  .00001365  00000+0  31300-3 0  9999
2 35935  98.4968 230.1479 0008024 162.4747 197.6729 14.57173470756101
TISAT 1                 
1 36799U 10035E   23354.64178660  .00007832  00000+0  65160-3 0  9998
2 36799  98.1093 231.6052 0011495  72.0025 288.2449 14.98929453730136
M-CUBED & EXP-1 PRIME   
1 37855U 11061F   23354.78721516  .00058076  00000+0  12399-2 0  9992
2 37855 101.6943  64.0195 0090419 184.0172 176.0343 15.40337594665142
AEROCUBE 4.5A           
1 38767U 12048K   23354.82057600  .00011571  00000+0  73564-3 0  9993
2 38767  64.6615 168.1925 0103471  85.7803 275.5131 15.04790475233431
AEROCUBE 4.5B           
1 38768U 12048L   23354.67885120  .00019312  00000+0  95569-3 0  9993
2 38768  64.6616 104.9338 0082964  75.1171 285.9121 15.14854519234158
STRAND-1                
1 39090U 13009E   23354.50058986  .00000529  00000+0  19718-3 0  9996
2 39090  98.3795 182.7374 0009967  71.0599 289.1667 14.35815428566454
BRITE-AUSTRIA           
1 39091U 13009F   23354.51816114  .00000362  00000+0  14011-3 0  9999
2 39091  98.3831 182.0082 0011510  77.3076 282.9396 14.35632596566487
BEESAT-3                
1 39135U 13015F   23354.52954325  .00921046  39975-3  20418-2 0  9998
2 39135  64.8370  56.9378 0011564 326.1188  33.9237 15.97598455591409
BEESAT-2                
1 39136U 13015G   23354.65799609  .00235964  00000+0  17504-2 0  9997
2 39136  64.8551  75.2024 0015875 281.2648  78.6720 15.71765218590603
NEE-01 PEGASO           
1 39151U 13018B   23354.29478967  .00003790  00000+0  45975-3 0  9992
2 39151  98.0218 105.1045 0014441 265.7687  94.1877 14.84111568575271
ESTCUBE 1               
1 39161U 13021C   23354.73710687  .00002739  00000+0  41149-3 0  9995
2 39161  97.8529  61.6211 0010470  90.1001 270.1408 14.75270359570627
POPACS 1                
1 39268U 13055D   23354.71515993  .00039353  00000+0  79222-3 0  9996
2 39268  80.9882 355.0512 0456005 304.1770  51.6988 14.79469363533895
POPACS 2                
1 39269U 13055E   23353.68099877  .00024586  00000+0  59690-3 0  9999
2 39269  81.0044  74.2546 0580979 150.6282 212.8942 14.49483942529381
POPACS 3                
1 39270U 13055F   23351.38132252  .00007728  00000+0  22219-3 0  9997
2 39270  81.0114 121.7771 0646551 284.1880  68.8337 14.32081284506753
ZACUBE-1 (TSHEPISOSAT)  
1 39417U 13066B   23354.84258226  .00006646  00000+0  73116-3 0  9996
2 39417  97.7119 310.4419 0054319  34.3805 326.0907 14.86827178544919
WNISAT-1                
1 39423U 13066H   23354.52437318  .00001726  00000+0  34162-3 0  9991
2 39423  97.6788 198.3572 0170686 212.7355 146.3176 14.54668908534524
TRITON-1                
1 39427U 13066M   23354.87728820  .00005391  00000+0  78790-3 0  9991
2 39427  97.8409 273.8819 0104287 299.4029  59.6799 14.72438568539818
DELFI-N3XT              
1 39428U 13066N   23354.75476663  .00009137  00000+0  12451-2 0  9997
2 39428  97.8379 273.2702 0105253 309.6885  49.5078 14.75098640539610
GOMX-1                  
1 39430U 13066Q   23354.78474424  .00002502  00000+0  42908-3 0  9996
2 39430  97.7557 234.9116 0144309 102.2455 259.4950 14.62902278536624
CUBEBUG-2 (LO-74)       
1 39440U 13066AA  23354.80965228  .00004340  00000+0  53903-3 0  9996
2 39440  97.7949 297.8770 0073801 138.5106 222.1742 14.81167648541769
NEE-02 KRYSAOR          
1 39441U 13066AB  23354.79426953  .00002734  00000+0  36203-3 0  9991
2 39441  97.8052 294.3051 0076802 157.5519 202.9084 14.78663922541412
FUNCUBE-1 (AO-73)       
1 39444U 13066AE  23354.83463876  .00008907  00000+0  92828-3 0  9997
2 39444  97.6974 313.1977 0051754  18.1146 342.1901 14.89013210543395
UWE-3                   
1 39446U 13066AG  23354.80513952  .00005247  00000+0  61607-3 0  9992
2 39446  97.7600 303.9515 0065019  88.0222 272.8437 14.83814062542085
BRITE-CA1 (TORONTO)     
1 40020U 14033L   23354.33670616  .00001464  00000+0  24742-3 0  9992
2 40020  97.8506 133.2109 0083237 306.8211  52.5380 14.68623964508461
DUCHIFAT-1              
1 40021U 14033M   23354.90643721  .00013611  00000+0  10442-2 0  9991
2 40021  98.0757 325.5647 0013471 358.3080   1.8096 15.01857644517176
NANOSATC-BR1            
1 40024U 14033Q   23354.82988810  .00010428  00000+0  86183-3 0  9995
2 40024  98.0508 315.2763 0010318  29.6998 330.4807 14.99102515516346
QB50P1                  
1 40025U 14033R   23354.80140743  .00008239  00000+0  73115-3 0  9997
2 40025  98.0194 305.4165 0011911  41.1173 319.0942 14.96393185516029
QB50P2                  
1 40032U 14033Y   23354.83468361  .00007099  00000+0  64674-3 0  9990
2 40032  97.9870 298.2424 0011529  38.9353 321.2695 14.95417866515843
PERSEUS-M2              
1 40037U 14033AD  23354.77506106  .00002409  00000+0  25936-3 0  9996
2 40037  97.9177 280.2102 0015065  68.6643 291.6180 14.89341645515116
PERSEUS-M1              
1 40039U 14033AF  23354.76916187  .00002559  00000+0  27709-3 0  9997
2 40039  97.9005 276.7489 0014923  68.0524 292.2277 14.89051586514979
POLYITAN-1              
1 40042U 14033AJ  23354.85678608  .00010084  00000+0  85704-3 0  9995
2 40042  98.0315 307.9859 0013653  29.5455 330.6535 14.97996816515957
TIGRISAT                
1 40043U 14033AK  23354.69202477  .00003864  00000+0  53345-3 0  9999
2 40043  97.6746 160.5785 0056922 166.5333 193.7413 14.77573452510947
AEROCUBE 6A             
1 40045U 14033AM  23354.46878040  .00006918  00000+0  88185-3 0  9994
2 40045  97.6574 170.5466 0053362 149.4679 210.9659 14.80793070511177
AEROCUBE 6B             
1 40046U 14033AN  23354.47147502  .00006859  00000+0  85863-3 0  9992
2 40046  97.6529 169.1159 0051947 145.6935 214.7651 14.81603841511217
UKUBE-1                 
1 40074U 14037F   23354.75425326  .00007194  00000+0  73984-3 0  9995
2 40074  98.3390 269.2148 0003110 321.6602  38.4393 14.90652622512023
BRITE-PL2 (HEWELIUSZ)   
1 40119U 14049B   23354.83254537  .00003047  00000+0  34060-3 0  9996
2 40119  97.8831  90.5575 0015272 231.7494 128.2349 14.87615300505904
GRIFEX                  
1 40379U 15003D   23354.93382311  .00171724  00000+0  13772-2 0  9992
2 40379  99.0842 340.5200 0042253 342.0518  17.9244 15.69285310492338
CP10 (EXOCUBE)          
1 40380U 15003E   23354.90987058  .00068049  00000+0  11977-2 0  9990
2 40380  99.0977 325.8798 0073828  25.4757 335.0097 15.47165386491432
EXACTVIEW 9             
1 40936U 15052G   23350.72138749  .00002637  00000+0  25861-3 0  9991
2 40936   6.0023 221.5589 0010087 356.1628   3.8422 14.79505348444326
AEROCUBE 5C             
1 40965U 15058B   23354.81096051  .00003476  00000+0  36076-3 0  9994
2 40965  64.7700 191.4329 0175704   5.3133 354.9783 14.80887912230460
AEROCUBE 7              
1 40966U 15058C   23354.81621307  .00004308  00000+0  43207-3 0  9992
2 40966  64.7686 186.5919 0172214   5.0201 355.2580 14.82216882230508
GALASSIA                
1 41170U 15077E   23343.13624618  .00570238  00000+0  16153-2 0  9991
2 41170  14.9813 308.5244 0005515 185.4524 174.5748 15.90738573443322
VELOX-II                
1 41171U 15077F   23344.56993208  .00027080  00000+0  66285-3 0  9998
2 41171  14.9906  84.7882 0004476 180.1790 179.8533 15.38470068442355
HORYU-4                 
1 41340U 16012D   23354.52834957  .00011817  00000+0  67404-3 0  9993
2 41340  31.0043  61.7830 0010211 312.8974  47.0807 15.11495045430906
E-ST@R-II               
1 41459U 16025D   23354.88668679  .00080485  00000+0  13806-2 0  9996
2 41459  98.1572 217.1085 0073462 160.4166 199.9930 15.47860918421586
RAVAN                   
1 41849U 16067B   23354.93955939  .00014392  00000+0  90024-3 0  9991
2 41849  98.0509 157.8944 0014015 278.1345  81.8293 15.09457519388903
CELTEE 1                
1 41850U 16067C   23354.40460916  .00006685  00000+0  49089-3 0  9992
2 41850  98.0811 150.2653 0001512  76.3883 283.7509 15.03813872388385
OPTICUBE 04             
1 41851U 16067D   23354.93340903  .00003687  00000+0  29304-3 0  9991
2 41851  98.0461 147.8885 0013858 295.2332  64.7454 15.01042259388335
AEROCUBE 8D             
1 41852U 16067E   23354.90770618  .00008271  00000+0  59402-3 0  9995
2 41852  98.0878 150.1546 0005406   0.5414 359.5816 15.04562869388410
AEROCUBE 8C             
1 41853U 16067F   23354.91295161  .00008807  00000+0  63353-3 0  9997
2 41853  98.0684 149.2024 0007933 285.4872  74.5476 15.04466795388401
PROMETHEUS 2-1          
1 41854U 16067G   23354.38945503  .00015673  00000+0  95771-3 0  9999
2 41854  98.0850 153.5081 0014472 310.6024  49.3944 15.10285768388545
